QIANFAN-65              
1 62795U 25016L   25304.58789169  .00000078  00000+0  10119-3 0  9999
2 62795  88.9727 107.4182 0015603 104.0437 256.2449 13.50973970 41550
QIANFAN-66              
1 62796U 25016M   25304.69081179  .00000079  00000+0  10381-3 0  9990
2 62796  88.9747 107.3694 0016732  99.8617 260.4424 13.50978079 41617
QIANFAN-67              
1 62797U 25016N   25304.69489558  .00000076  00000+0  98132-4 0  9992
2 62797  88.9738 107.3987 0016682 106.0595 254.2395 13.50970829 41582
QIANFAN-68              
1 62798U 25016P   25304.68666428  .00000067  00000+0  85450-4 0  9994
2 62798  88.9741 107.4432 0016742 104.4979 255.8031 13.50973147 41566
QIANFAN-69              
1 62799U 25016Q   25304.70318954  .00000074  00000+0  95368-4 0  9993
2 62799  88.9720 107.3200 0017489 105.4604 254.8480 13.50970457 41604
QIANFAN-70              
1 62800U 25016R   25304.64541111  .00000092  00000+0  12345-3 0  9995
2 62800  88.9741 107.4555 0017118  96.8772 263.4327 13.50973362 41550
QIANFAN-71              
1 62801U 25016S   25304.64138434  .00000090  00000+0  11967-3 0  9993
2 62801  88.9735 107.4380 0017393 108.8071 251.4968 13.50974282 41551
QIANFAN-72              
1 62802U 25016T   25304.58378987  .00000078  00000+0  10211-3 0  9993
2 62802  88.9725 107.4615 0020578 115.8299 244.4978 13.50973993 41530
